{
  "norad_id": 67464,
  "name": "STARLINK-36421",
  "history": [
    {
      "epoch": "2026-03-28T08:58:51.813120",
      "apogee_km": 483.92684545547127,
      "perigee_km": 482.0333143637581,
      "latitude_deg": -40.15834839831085,
      "longitude_deg": -117.67576320027001,
      "semi_major_axis_km": 6861.117079909614,
      "eccentricity": 0.00013799,
      "inclination_deg": 43.0018,
      "raan_deg": 99.3672,
      "arg_perigee_deg": 260.01,
      "mean_anomaly_deg": 100.0596,
      "mean_motion_rev_day": 15.27603049
    }
  ]
}